STARLINK-34074          
1 64099U 25110D   26068.26560855  .00009162  00000+0  32114-3 0  9997
2 64099  53.1611  29.0141 0001562  91.1646 268.9534 15.30194433 45813
KUIPER-00266            
1 67789U 26030AB  26067.91293632  .00029701  00000+0  98220-3 0  9996
2 67789  51.8807 223.5904 0022313  72.5291 287.8129 15.30874235  4964
